QB50P2                  
1 40032U 14033Y   26062.18464698  .00011208  00000+0  62896-3 0  9997
2 40032  98.0718  52.6122 0007803 162.6279 197.5219 15.13514939636621
PERSEUS-M1              
1 40039U 14033AF  26061.78123926  .00003474  00000+0  32126-3 0  9994
2 40039  97.9548   4.2636 0010070 294.5474  65.4696 14.95207636634736
POLYITAN-1              
1 40042U 14033AJ  26062.00070681  .00024160  00000+0  85298-3 0  9996
2 40042  98.1046  78.4877 0008787 146.9517 213.2272 15.29195498637349
TIGRISAT                
1 40043U 14033AK  26061.64832918  .00003135  00000+0  36831-3 0  9993
2 40043  97.7655 214.2268 0050753  65.0259 295.6215 14.84681965629812
AISAT                   
1 40054U 14034B   26062.17812703  .00013296  00000+0  90305-3 0  9990
2 40054  98.2467 327.0181 0008218 210.2080 149.8672 15.06499403631238
CANX-4                  
1 40055U 14034C   26062.15765331  .00001353  00000+0  18175-3 0  9999
2 40055  98.3288 293.4943 0012802 357.7943   2.3209 14.81040878628833
CANX-5                  
1 40056U 14034D   26062.15729993  .00001352  00000+0  18149-3 0  9994
2 40056  98.3291 293.5312 0012795 358.0287   2.0872 14.81057536619646
VELOX-I                 
1 40057U 14034E   26062.14087265  .00006694  00000+0  59045-3 0  9997
2 40057  98.2657 321.1693 0005524 263.1743  96.8849 14.96765067630736
GONETS-M 10             
1 40063U 14036C   26062.22161811 -.00000080  00000+0 -64621-3 0  9996
2 40063  82.5146  13.4836 0022505  15.9138 344.2644 12.42941947529081
METEOR-M 2              
1 40069U 14037A   26062.20733118  .00000535  00000+0  26412-3 0  9995
2 40069  98.5008  41.7575 0005776 356.8575   3.2566 14.21426488604264
DX1                     
1 40071U 14037C   26062.17585984  .00003398  00000+0  36235-3 0  9994
2 40071  98.3754  17.5530 0005619 256.7808 103.2781 14.89588293630321
UKUBE-1                 
1 40074U 14037F   26062.19679825  .00012698  00000+0  75114-3 0  9999
2 40074  98.4218  54.4986 0002605 119.1945 240.9543 15.11612544632534
GAOFEN-2                
1 40118U 14049A   26062.22580912  .00000804  00000+0  11138-3 0  9995
2 40118  98.0245 126.4859 0006567 207.5844 152.5020 14.80759815623557
BRITE-PL2 (HEWELIUSZ)   
1 40119U 14049B   26061.84231936  .00003093  00000+0  29400-3 0  9996
2 40119  97.8979 173.1336 0015452 102.4479 257.8470 14.94135381625560
CBERS 4                 
1 40336U 14079A   26062.16080934 -.00000036  00000+0  20465-5 0  9995
2 40336  98.3503 122.3829 0000809  54.2828 305.8433 14.35410103588749
SMAP                    
1 40376U 15003A   26062.16525554  .00000665  00000+0  13796-3 0  9993
2 40376  98.1310  70.7452 0001218 112.8294 247.3037 14.63328625592112
GONETS-M 11             
1 40552U 15020A   26062.15366918  .00000118  00000+0  77962-3 0  9992
2 40552  82.4817  97.0709 0015203 230.3032 129.6708 12.42872582495567
